$$SOE
2460714.500000000, A.D. 2025-Feb-08 00:00:00.0000, -3.865287130576640E+09, -3.458125865278315E+09, 8.213548669597294E+08,
2460721.500000000, A.D. 2025-Feb-15 00:00:00.0000, -3.862770900782860E+09, -3.460659337082175E+09, 8.228625238186201E+08,
2460728.500000000, A.D. 2025-Feb-22 00:00:00.0000, -3.860253383681031E+09, -3.463191737297354E+09, 8.243699052039945E+08,
2460735.500000000, A.D. 2025-Mar-01 00:00:00.0000, -3.857734577875973E+09, -3.465723064715338E+09, 8.258770104483341E+08,
2460742.500000000, A.D. 2025-Mar-08 00:00:00.0000, -3.855214480891756E+09, -3.468253318244253E+09, 8.273838387334560E+08,
2460749.500000000, A.D. 2025-Mar-15 00:00:00.0000, -3.852693089193939E+09, -3.470782495073377E+09, 8.288903892460462E+08,
2460756.500000000, A.D. 2025-Mar-22 00:00:00.0000, -3.850170400419968E+09, -3.473310590250565E+09, 8.303966614215720E+08,
2460763.500000000, A.D. 2025-Mar-29 00:00:00.0000, -3.847646414240234E+09, -3.475837598514389E+09, 8.319026548794210E+08,
2460770.500000000, A.D. 2025-Apr-05 00:00:00.0000, -3.845121131524572E+09, -3.478363515242560E+09, 8.334083692756168E+08,
2460777.500000000, A.D. 2025-Apr-12 00:00:00.0000, -3.842594553740135E+09, -3.480888336412412E+09, 8.349138042579622E+08,
2460784.500000000, A.D. 2025-Apr-19 00:00:00.0000, -3.840066682767837E+09, -3.483412058454548E+09, 8.364189594684758E+08,
2460791.500000000, A.D. 2025-Apr-26 00:00:00.0000, -3.837537520865716E+09, -3.485934678202319E+09, 8.379238345513391E+08,
2460798.500000000, A.D. 2025-May-03 00:00:00.0000, -3.835007070665534E+09, -3.488456192917591E+09, 8.394284291572800E+08,
2460805.500000000, A.D. 2025-May-10 00:00:00.0000, -3.832475335174024E+09, -3.490976600383784E+09, 8.409327429422920E+08,
2460812.500000000, A.D. 2025-May-17 00:00:00.0000, -3.829942317742060E+09, -3.493495899106877E+09, 8.424367755538377E+08,
2460819.500000000, A.D. 2025-May-24 00:00:00.0000, -3.827408021827816E+09, -3.496014088678589E+09, 8.439405265840383E+08,
2460826.500000000, A.D. 2025-May-31 00:00:00.0000, -3.824872450136147E+09, -3.498531169990473E+09, 8.454439954768933E+08,
2460833.500000000, A.D. 2025-Jun-07 00:00:00.0000, -3.822335603535146E+09, -3.501047144093943E+09, 8.469471815247471E+08,
2460840.500000000, A.D. 2025-Jun-14 00:00:00.0000, -3.819797482114401E+09, -3.503562010372858E+09, 8.484500841163801E+08,
2460847.500000000, A.D. 2025-Jun-21 00:00:00.0000, -3.817258087168205E+09, -3.506075767299852E+09, 8.499527028578058E+08,
2460854.500000000, A.D. 2025-Jun-28 00:00:00.0000, -3.814717420975533E+09, -3.508588414011562E+09, 8.514550374231031E+08,
2460861.500000000, A.D. 2025-Jul-05 00:00:00.0000, -3.812175485893476E+09, -3.511099950546107E+09, 8.529570874506691E+08,
2460868.500000000, A.D. 2025-Jul-12 00:00:00.0000, -3.809632283955163E+09, -3.513610377548030E+09, 8.544588525283808E+08,
2460875.500000000, A.D. 2025-Jul-19 00:00:00.0000, -3.807087816782579E+09, -3.516119696015599E+09, 8.559603322033460E+08,
2460882.500000000, A.D. 2025-Jul-26 00:00:00.0000, -3.804542085604359E+09, -3.518627907146901E+09, 8.574615259924554E+08,
2460889.500000000, A.D. 2025-Aug-02 00:00:00.0000, -3.801995091313172E+09, -3.521135012262915E+09, 8.589624333896093E+08,
2460896.500000000, A.D. 2025-Aug-09 00:00:00.0000, -3.799446834539267E+09, -3.523641012821983E+09, 8.604630538664329E+08,
2460903.500000000, A.D. 2025-Aug-16 00:00:00.0000, -3.796897315663255E+09, -3.526145910588600E+09, 8.619633868544091E+08,
2460910.500000000, A.D. 2025-Aug-23 00:00:00.0000, -3.794346534475480E+09, -3.528649707939809E+09, 8.634634316831661E+08,
2460917.500000000, A.D. 2025-Aug-30 00:00:00.0000, -3.791794489153062E+09, -3.531152407594880E+09, 8.649631875033214E+08,
2460924.500000000, A.D. 2025-Sep-06 00:00:00.0000, -3.789241175972732E+09, -3.533654010767843E+09, 8.664626534059522E+08,
2460931.500000000, A.D. 2025-Sep-13 00:00:00.0000, -3.786686591430201E+09, -3.536154516225562E+09, 8.679618286892842E+08,
2460938.500000000, A.D. 2025-Sep-20 00:00:00.0000, -3.784130733492860E+09, -3.538653921895658E+09, 8.694607128382404E+08,
2460945.500000000, A.D. 2025-Sep-27 00:00:00.0000, -3.781573600927237E+09, -3.541152225912518E+09, 8.709593053742552E+08,
2460952.500000000, A.D. 2025-Oct-04 00:00:00.0000, -3.779015192717914E+09, -3.543649426561998E+09, 8.724576058045741E+08,
2460959.500000000, A.D. 2025-Oct-11 00:00:00.0000, -3.776455507951560E+09, -3.546145522067653E+09, 8.739556136283525E+08,
2460966.500000000, A.D. 2025-Oct-18 00:00:00.0000, -3.773894545882405E+09, -3.548640510492607E+09, 8.754533283511430E+08,
2460973.500000000, A.D. 2025-Oct-25 00:00:00.0000, -3.771332306039637E+09, -3.551134389745778E+09, 8.769507494958479E+08,
2460980.500000000, A.D. 2025-Nov-01 00:00:00.0000, -3.768768788337303E+09, -3.553627157676515E+09, 8.784478766076787E+08,
2460987.500000000, A.D. 2025-Nov-08 00:00:00.0000, -3.766203993152225E+09, -3.556118812288654E+09, 8.799447092472290E+08,
2460994.500000000, A.D. 2025-Nov-15 00:00:00.0000, -3.763637921222090E+09, -3.558609352132049E+09, 8.814412469531274E+08,
2461001.500000000, A.D. 2025-Nov-22 00:00:00.0000, -3.761070572961115E+09, -3.561098776651034E+09, 8.829374891550959E+08,
2461008.500000000, A.D. 2025-Nov-29 00:00:00.0000, -3.758501947346521E+09, -3.563587085354374E+09, 8.844334351440114E+08,
2461015.500000000, A.D. 2025-Dec-06 00:00:00.0000, -3.755932042653323E+09, -3.566074275942327E+09, 8.859290842965456E+08,
2461022.500000000, A.D. 2025-Dec-13 00:00:00.0000, -3.753360858603786E+09, -3.568560344760795E+09, 8.874244362390072E+08,
2461029.500000000, A.D. 2025-Dec-20 00:00:00.0000, -3.750788396438425E+09, -3.571045288559043E+09, 8.889194907134933E+08,
2461036.500000000, A.D. 2025-Dec-27 00:00:00.0000, -3.748214657982341E+09, -3.573529104959252E+09, 8.904142474565313E+08,
2461043.500000000, A.D. 2026-Jan-03 00:00:00.0000, -3.745639645166136E+09, -3.576011792252926E+09, 8.919087061737330E+08,
2461050.500000000, A.D. 2026-Jan-10 00:00:00.0000, -3.743063359891631E+09, -3.578493349202359E+09, 8.934028665449409E+08,
2461057.500000000, A.D. 2026-Jan-17 00:00:00.0000, -3.740485804009838E+09, -3.580973774937926E+09, 8.948967282311180E+08,
2461064.500000000, A.D. 2026-Jan-24 00:00:00.0000, -3.737906979333232E+09, -3.583453068927635E+09, 8.963902908777804E+08,
2461071.500000000, A.D. 2026-Jan-31 00:00:00.0000, -3.735326887658876E+09, -3.585931231025427E+09, 8.978835541123210E+08,
2461078.500000000, A.D. 2026-Feb-07 00:00:00.0000, -3.732745530740880E+09, -3.588408261654642E+09, 8.993765175250093E+08,
2461085.500000000, A.D. 2026-Feb-14 00:00:00.0000, -3.730162909959137E+09, -3.590884162141063E+09, 9.008691806093094E+08,
2461092.500000000, A.D. 2026-Feb-21 00:00:00.0000, -3.727579025296773E+09, -3.593358934617708E+09, 9.023615426732405E+08,
2461099.500000000, A.D. 2026-Feb-28 00:00:00.0000, -3.724993874711157E+09, -3.595832580347293E+09, 9.038536029156269E+08,
2461106.500000000, A.D. 2026-Mar-07 00:00:00.0000, -3.722407455956997E+09, -3.598305098411976E+09, 9.053453606967765E+08,
2461113.500000000, A.D. 2026-Mar-14 00:00:00.0000, -3.719819768085857E+09, -3.600776487102968E+09, 9.068368155584489E+08,
2461120.500000000, A.D. 2026-Mar-21 00:00:00.0000, -3.717230810839162E+09, -3.603246745111944E+09, 9.083279670665153E+08,
2461127.500000000, A.D. 2026-Mar-28 00:00:00.0000, -3.714640583944119E+09, -3.605715871495594E+09, 9.098188147448097E+08,
2461134.500000000, A.D. 2026-Apr-04 00:00:00.0000, -3.712049086916274E+09, -3.608183865378927E+09, 9.113093580767742E+08,
2461141.500000000, A.D. 2026-Apr-11 00:00:00.0000, -3.709456319094763E+09, -3.610650725757318E+09, 9.127995965205493E+08,
2461148.500000000, A.D. 2026-Apr-18 00:00:00.0000, -3.706862279750865E+09, -3.613116451403986E+09, 9.142895295225493E+08,
2461155.500000000, A.D. 2026-Apr-25 00:00:00.0000, -3.704266968223795E+09, -3.615581040868234E+09, 9.157791565267258E+08,
2461162.500000000, A.D. 2026-May-02 00:00:00.0000, -3.701670384052713E+09, -3.618044492594053E+09, 9.172684769744714E+08,
2461169.500000000, A.D. 2026-May-09 00:00:00.0000, -3.699072526979940E+09, -3.620506805225339E+09, 9.187574902784973E+08,
2461176.500000000, A.D. 2026-May-16 00:00:00.0000, -3.696473396447104E+09, -3.622967977959318E+09, 9.202461957474391E+08,
2461183.500000000, A.D. 2026-May-23 00:00:00.0000, -3.693872990532043E+09, -3.625428009925820E+09, 9.217345925400751E+08,
2461190.500000000, A.D. 2026-May-30 00:00:00.0000, -3.691271306404758E+09, -3.627886898272768E+09, 9.232226798658967E+08,
2461197.500000000, A.D. 2026-Jun-06 00:00:00.0000, -3.688668342619581E+09, -3.630344638231441E+09, 9.247104571935507E+08,
2461204.500000000, A.D. 2026-Jun-13 00:00:00.0000, -3.686064099577555E+09, -3.632801224962545E+09, 9.261979241470346E+08,
2461211.500000000, A.D. 2026-Jun-20 00:00:00.0000, -3.683458578660042E+09, -3.635256654256951E+09, 9.276850803745377E+08,
2461218.500000000, A.D. 2026-Jun-27 00:00:00.0000, -3.680851781731927E+09, -3.637710922430910E+09, 9.291719255176618E+08,
2461225.500000000, A.D. 2026-Jul-04 00:00:00.0000, -3.678243711014518E+09, -3.640164026190629E+09, 9.306584592174506E+08,
2461232.500000000, A.D. 2026-Jul-11 00:00:00.0000, -3.675634369074224E+09, -3.642615962598043E+09, 9.321446811228582E+08,
2461239.500000000, A.D. 2026-Jul-18 00:00:00.0000, -3.673023758834326E+09, -3.645066729112013E+09, 9.336305908950133E+08,
2461246.500000000, A.D. 2026-Jul-25 00:00:00.0000, -3.670411883585403E+09, -3.647516323702130E+09, 9.351161882050135E+08,
2461253.500000000, A.D. 2026-Aug-01 00:00:00.0000, -3.667798746946332E+09, -3.649964745083209E+09, 9.366014727167194E+08,
2461260.500000000, A.D. 2026-Aug-08 00:00:00.0000, -3.665184352561051E+09, -3.652411993106251E+09, 9.380864440317643E+08,
2461267.500000000, A.D. 2026-Aug-15 00:00:00.0000, -3.662568703116090E+09, -3.654858068855360E+09, 9.395711015954155E+08,
2461274.500000000, A.D. 2026-Aug-22 00:00:00.0000, -3.659951799440053E+09, -3.657302973229198E+09, 9.410554447328508E+08,
$$EOE